STARLINK-31114          
1 58766U 24011B   26188.38045202  .00000271  00000+0  21282-4 0  9997
2 58766  53.1586 175.7499 0001190  78.7348 281.3787 15.30180932138620
STARLINK-31140          
1 58767U 24011C   26189.33702560  .00003227  00000+0  10669-3 0  9991
2 58767  53.1595 172.4535 0001076  97.1829 262.9296 15.34375287138755
STARLINK-31146          
1 58769U 24011E   26189.34332893  .00003915  00000+0  12701-3 0  9995
2 58769  53.1597 172.4904 0001071 126.6794 233.4307 15.34379085138759
STARLINK-31143          
1 58770U 24011F   26187.26528219 -.00005211  00000+0 -14335-3 0  9993
2 58770  53.1591 182.2760 0001165  96.1301 263.9834 15.34369453138439
STARLINK-31135          
1 58771U 24011G   26189.34962593  .00002160  00000+0  85060-4 0  9994
2 58771  53.1579 171.1317 0000820  94.3908 265.7187 15.30179360138771
STARLINK-31136          
1 58772U 24011H   26189.33071077  .00005203  00000+0  16510-3 0  9996
2 58772  53.1603 172.4095 0001121  70.7784 289.3340 15.34381808138748
STARLINK-31073          
1 58773U 24011J   26189.35435490  .00001961  00000+0  78308-4 0  9993
2 58773  53.1592 173.2669 0001135  84.7589 275.3541 15.30196692138744
STARLINK-31122          
1 58774U 24011K   26189.36070122  .00002860  00000+0  10870-3 0  9990
2 58774  53.1598 173.3015 0001496  70.1800 289.9362 15.30186957138747
STARLINK-31123          
1 58775U 24011L   26189.36638456  .00004850  00000+0  15461-3 0  9993
2 58775  53.1580 171.9230 0001298  87.9351 272.1800 15.34395450 12015
STARLINK-31117          
1 58776U 24011M   26189.36808714  .00005265  00000+0  18978-3 0  9997
2 58776  53.1573 173.3474 0001229  88.4020 271.7121 15.30195417138744
STARLINK-31132          
1 58777U 24011N   26189.09002195 -.00000271  00000+0  30345-5 0  9994
2 58777  53.1617  83.5274 0001810 120.3617 239.7564 15.31701287140004
STARLINK-31120          
1 58778U 24011P   26188.36418323 -.00000522  00000+0 -43127-5 0  9990
2 58778  53.1585 177.0367 0001026  89.3826 270.7294 15.34379207138600
STARLINK-31142          
1 58779U 24011Q   26189.36597929  .00003623  00000+0  13445-3 0  9993
2 58779  53.1594 173.3315 0000752  98.7435 261.3651 15.30186397138748
STARLINK-31099          
1 58781U 24011S   26189.36281380  .00002846  00000+0  10823-3 0  9990
2 58781  53.1591 173.3116 0001092  96.0372 264.0753 15.30181466138741
STARLINK-31047          
1 58783U 24011U   26189.58336806 -.00022455  00000+0 -65493-3 0  9993
2 58783  53.1578 154.9058 0001074  85.6555 353.7166 15.34424044  5625
STARLINK-31039          
1 58784U 24011V   26189.35646518  .00000610  00000+0  32732-4 0  9991
2 58784  53.1590 173.2681 0001273 111.9166 248.1970 15.30174931138741
STARLINK-31034          
1 58785U 24011W   26189.08047566  .00003588  00000+0  11729-3 0  9999
2 58785  53.1587  69.9441 0001467  82.5991 277.5178 15.34397601140190
STARLINK-31024          
1 58786U 24011X   26189.36123253  .00005592  00000+0  20084-3 0  9990
2 58786  53.1587 171.1944 0000869  47.8703 312.2372 15.30186971138771
STARLINK-31189          
1 58787U 24012A   26189.41539813  .00003076  00000+0  12132-3 0  9991
2 58787  43.0025 203.0912 0001445 281.6307  78.4383 15.27563002139703
STARLINK-31185          
1 58788U 24012B   26189.40653616  .00001248  00000+0  54913-4 0  9992
2 58788  43.0001 203.8833 0001286 277.0025  83.0680 15.27558392139693
STARLINK-31166          
1 58789U 24012C   26189.17055605  .00023289  00000+0  85574-3 0  9996
2 58789  43.0053 204.6935 0001463 303.9001  56.1711 15.27480387139664
STARLINK-31187          
1 58790U 24012D   26189.40522243  .00006049  00000+0  22898-3 0  9996
2 58790  42.9995 203.8726 0001124 274.5412  85.5311 15.27605909139695
STARLINK-31162          
1 58791U 24012E   26189.16926892  .00003027  00000+0  11953-3 0  9991
2 58791  43.0017 204.6906 0001034 264.1878  95.8856 15.27565854139662
STARLINK-31184          
1 58793U 24012G   26189.49104976  .00002445  00000+0  98365-4 0  9996
2 58793  43.0036 202.7995 0001539 279.0431  81.0246 15.27569610139712
STARLINK-31192          
1 58794U 24012H   26189.53346639  .00002905  00000+0  11512-3 0  9995
2 58794  43.0012 203.1074 0001612 287.5082  72.5594 15.27564604139717
STARLINK-31161          
1 58795U 24012J   26189.16669458  .00004840  00000+0  18541-3 0  9991
2 58795  43.0057 204.6674 0001870 289.7333  70.3317 15.27559208139665
STARLINK-31195          
1 58796U 24012K   26189.41040695  .00000250  00000+0  18606-4 0  9990
2 58796  43.0001 203.9097 0001367 296.3629  63.7082 15.27568422139695
STARLINK-31193          
1 58797U 24012L   26189.37185660  .00002993  00000+0  11831-3 0  9996
2 58797  43.0035 203.6244 0001638 284.1373  75.9297 15.27563214139693
STARLINK-31168          
1 58798U 24012M   26189.50648880  .00004001  00000+0  15491-3 0  9998
2 58798  43.0016 202.9085 0001213 266.0390  94.0323 15.27567781139713
STARLINK-31191          
1 58800U 24012P   26189.48720030  .00001343  00000+0  58346-4 0  9990
2 58800  43.0022 202.7673 0001285 276.9833  83.0873 15.27559032139714
